GLOBALSTAR M067         
1 32263U 07048A   24353.33214523 -.00000069  00000+0  20864-3 0  9993
2 32263  51.9704 205.1266 0001052  31.0036 141.2809 12.40662807787033
GLOBALSTAR M070         
1 32264U 07048B   24353.38783888 -.00000072  00000+0  17878-3 0  9999
2 32264  51.9767 319.2882 0000631  56.3466 108.7713 12.62308003790836
GLOBALSTAR M066         
1 32265U 07048C   24353.32434891 -.00000086  00000+0  88320-4 0  9997
2 32265  51.9645 191.7685 0001671  78.3470  92.3960 12.42168729792909
GLOBALSTAR M068         
1 32266U 07048D   24353.36413943 -.00000097  00000+0  39149-4 0  9994
2 32266  51.9867 133.4593 0002023 102.8615 274.8106 12.62811583794718
GLOBALSTAR M079         
1 37188U 10054A   24353.23246929 -.00000089  00000+0  83209-4 0  9994
2 37188  52.0055 330.6430 0000084  27.0477 352.2556 12.62268314653607
GLOBALSTAR M074         
1 37189U 10054B   24353.36963758 -.00000093  00000+0  62493-4 0  9992
2 37189  52.0034 329.5742 0000513  41.4619 122.4422 12.62260244654225
GLOBALSTAR M076         
1 37190U 10054C   24353.20472978 -.00000087  00000+0  94607-4 0  9991
2 37190  52.0049 330.2326 0000418   4.8091   8.3000 12.62274824653920
GLOBALSTAR M077         
1 37191U 10054D   24353.30449067 -.00000063  00000+0  22963-3 0  9995
2 37191  52.0080 286.7343 0000676  54.1789 111.9913 12.62268352654304
